[{"OBJECT_NAME":"NEXSAT-1","OBJECT_ID":"2024-024E","EPOCH":"2026-03-09T22:47:24.778176","MEAN_MOTION":15.32166372,"ECCENTRICITY":0.00099795,"INCLINATION":97.3124,"RA_OF_ASC_NODE":144.1918,"ARG_OF_PERICENTER":108.5709,"MEAN_ANOMALY":251.6617,"EPHEMERIS_TYPE":0,"CLASSIFICATION_TYPE":"U","NORAD_CAT_ID":58921,"ELEMENT_SET_NO":999,"REV_AT_EPOCH":11669,"BSTAR":0.00031433612,"MEAN_MOTION_DOT":9.702e-5,"MEAN_MOTION_DDOT":0},{"OBJECT_NAME":"STARLINK-35649","OBJECT_ID":"2025-237M","EPOCH":"2026-03-09T22:35:32.374752","MEAN_MOTION":15.3021073,"ECCENTRICITY":0.00012282,"INCLINATION":53.161,"RA_OF_ASC_NODE":38.1301,"ARG_OF_PERICENTER":100.9783,"MEAN_ANOMALY":259.1356,"EPHEMERIS_TYPE":0,"CLASSIFICATION_TYPE":"U","NORAD_CAT_ID":66125,"ELEMENT_SET_NO":999,"REV_AT_EPOCH":2265,"BSTAR":0.00081774871,"MEAN_MOTION_DOT":0.00023946,"MEAN_MOTION_DDOT":0}]
